start=new Date('2023-01-09T00:00:00.000Z').valueOf();
sats=[{"INCLINATION":"53.0541","REV_AT_EPOCH":"15989","EPOCH":"2023-01-08T12:52:21.666432","EPHEMERIS_TYPE":"0","MEAN_ANOMALY":"252.9528","TLE_LINE1":"1 45184U 20012G   23008.53636188  .00000689  00000-0  65158-4 0  9992","ELEMENT_SET_NO":"999","OBJECT_ID":"2020-012G","BSTAR":"0.00006515800000","OBJECT_NAME":"STARLINK-1205","GP_ID":"222462816","FILE":"3736235","LAUNCH_DATE":"2020-02-17","TLE_LINE2":"2 45184  53.0541 176.8054 0001370 107.1611 252.9528 15.06406027159897","ECCENTRICITY":"0.00013700","PERIOD":"95.592","DECAY_DATE":null,"SEMIMAJOR_AXIS":"6925.330","MEAN_ELEMENT_THEORY":"SGP4","CLASSIFICATION_TYPE":"U","MEAN_MOTION_DDOT":"0.0000000000000","CENTER_NAME":"EARTH","RA_OF_ASC_NODE":"176.8054","RCS_SIZE":"LARGE","COUNTRY_CODE":"US","REF_FRAME":"TEME","PERIAPSIS":"546.246","TIME_SYSTEM":"UTC","SITE":"AFETR","APOAPSIS":"548.144","NORAD_CAT_ID":"45184","MEAN_MOTION_DOT":"0.00000689","OBJECT_TYPE":"PAYLOAD","ARG_OF_PERICENTER":"107.1611","MEAN_MOTION":"15.06406027"},{"APOAPSIS":"548.244","NORAD_CAT_ID":"45185","MEAN_MOTION_DOT":"0.00003374","OBJECT_TYPE":"PAYLOAD","ARG_OF_PERICENTER":"83.7173","SITE":"AFETR","MEAN_MOTION":"15.06393609","COUNTRY_CODE":"US","PERIAPSIS":"546.222","TIME_SYSTEM":"UTC","REF_FRAME":"TEME","TLE_LINE2":"2 45185  53.0519 195.3061 0001460  83.7173 276.3982 15.06393609160571","LAUNCH_DATE":"2020-02-17","PERIOD":"95.593","ECCENTRICITY":"0.00014600","BSTAR":"0.00024534000000","GP_ID":"222495048","OBJECT_NAME":"STARLINK-1216","FILE":"3736460","MEAN_MOTION_DDOT":"0.0000000000000","CENTER_NAME":"EARTH","RA_OF_ASC_NODE":"195.3061","RCS_SIZE":"LARGE","SEMIMAJOR_AXIS":"6925.368","DECAY_DATE":null,"CLASSIFICATION_TYPE":"U","MEAN_ELEMENT_THEORY":"SGP4","EPOCH":"2023-01-08T20:52:44.536224","INCLINATION":"53.0519","REV_AT_EPOCH":"16057","TLE_LINE1":"1 45185U 20012H   23008.86995991  .00003374  00000-0  24534-3 0  9995","ELEMENT_SET_NO":"999","OBJECT_ID":"2020-012H","EPHEMERIS_TYPE":"0","MEAN_ANOMALY":"276.3982"},{"COUNTRY_CODE":"US","REF_FRAME":"TEME","TIME_SYSTEM":"UTC","PERIAPSIS":"546.366","SITE":"AFETR","ARG_OF_PERICENTER":"97.8465","MEAN_MOTION_DOT":"0.00002097","OBJECT_TYPE":"PAYLOAD","NORAD_CAT_ID":"45186","APOAPSIS":"548.079","MEAN_MOTION":"15.06397106","REV_AT_EPOCH":"16057","INCLINATION":"53.0504","EPOCH":"2023-01-08T21:13:57.413856","MEAN_ANOMALY":"262.2664","EPHEMERIS_TYPE":"0","ELEMENT_SET_NO":"999","OBJECT_ID":"2020-012J","TLE_LINE1":"1 45186U 20012J   23008.88469229  .00002097  00000-0  15967-3 0  9999","GP_ID":"222495299","FILE":"3736460","OBJECT_NAME":"STARLINK-1224","BSTAR":"0.00015967000000","PERIOD":"95.592","ECCENTRICITY":"0.00012370","TLE_LINE2":"2 45186  53.0504 195.2370 0001237  97.8465 262.2664 15.06397106160577","LAUNCH_DATE":"2020-02-17","CLASSIFICATION_TYPE":"U","MEAN_ELEMENT_THEORY":"SGP4","SEMIMAJOR_AXIS":"6925.357","DECAY_DATE":null,"RA_OF_ASC_NODE":"195.2370","RCS_SIZE":"LARGE","MEAN_MOTION_DDOT":"0.0000000000000","CENTER_NAME":"EARTH"},{"ARG_OF_PERICENTER":"95.4735","MEAN_MOTION_DOT":"-0.00003127","OBJECT_TYPE":"PAYLOAD","NORAD_CAT_ID":"45187","APOAPSIS":"548.343","SITE":"AFETR","MEAN_MOTION":"15.06404077","COUNTRY_CODE":"US","TIME_SYSTEM":"UTC","PERIAPSIS":"546.059","REF_FRAME":"TEME","PERIOD":"95.592","ECCENTRICITY":"0.00016490","LAUNCH_DATE":"2020-02-17","TLE_LINE2":"2 45187  53.0529 195.2217 0001649  95.4735 264.6442 15.06404077160628","OBJECT_NAME":"STARLINK-1225","GP_ID":"222495550","FILE":"3736460","BSTAR":"-0.00019110000000","RA_OF_ASC_NODE":"195.2217","RCS_SIZE":"LARGE","MEAN_MOTION_DDOT":"0.0000000000000","CENTER_NAME":"EARTH","CLASSIFICATION_TYPE":"U","MEAN_ELEMENT_THEORY":"SGP4","DECAY_DATE":null,"SEMIMAJOR_AXIS":"6925.336","EPOCH":"2023-01-08T21:19:16.305888","REV_AT_EPOCH":"16062","INCLINATION":"53.0529","ELEMENT_SET_NO":"999","OBJECT_ID":"2020-012K","TLE_LINE1":"1 45187U 20012K   23008.88838317 -.00003127  00000-0 -19110-3 0  9999","MEAN_ANOMALY":"264.6442","EPHEMERIS_TYPE":"0"},{"INCLINATION":"53.0535","REV_AT_EPOCH":"16112","EPOCH":"2023-01-08T18:50:38.131584","EPHEMERIS_TYPE":"0","MEAN_ANOMALY":"308.7322","TLE_LINE1":"1 45188U 20012L   23008.78516356  .00002581  00000-0  19214-3 0  9991","ELEMENT_SET_NO":"999","OBJECT_ID":"2020-012L","BSTAR":"0.00019214000000","FILE":"3736460","GP_ID":"222494300","OBJECT_NAME":"STARLINK-1228","TLE_LINE2":"2 45188  53.0535 155.6702 0001677  51.3817 308.7322 15.06398069161124","LAUNCH_DATE":"2020-02-17","PERIOD":"95.592","ECCENTRICITY":"0.00016770","SEMIMAJOR_AXIS":"6925.354","DECAY_DATE":null,"CLASSIFICATION_TYPE":"U","MEAN_ELEMENT_THEORY":"SGP4","MEAN_MOTION_DDOT":"0.0000000000000","CENTER_NAME":"EARTH","RA_OF_ASC_NODE":"155.6702","RCS_SIZE":"LARGE","COUNTRY_CODE":"US","REF_FRAME":"TEME","PERIAPSIS":"546.058","TIME_SYSTEM":"UTC","SITE":"AFETR","APOAPSIS":"548.381","NORAD_CAT_ID":"45188","OBJECT_TYPE":"PAYLOAD","MEAN_MOTION_DOT":"0.00002581","ARG_OF_PERICENTER":"51.3817","MEAN_MOTION":"15.06398069"},{"SITE":"AFETR","ARG_OF_PERICENTER":"102.0878","OBJECT_TYPE":"PAYLOAD","MEAN_MOTION_DOT":"0.00002283","NORAD_CAT_ID":"45189","APOAPSIS":"548.125","MEAN_MOTION":"15.06391299","COUNTRY_CODE":"US","REF_FRAME":"TEME","TIME_SYSTEM":"UTC","PERIAPSIS":"546.356","FILE":"3736460","GP_ID":"222494550","OBJECT_NAME":"STARLINK-1230","BSTAR":"0.00017217000000","PERIOD":"95.593","ECCENTRICITY":"0.00012770","TLE_LINE2":"2 45189  53.0531 196.3949 0001277 102.0878 258.0254 15.06391299157813","LAUNCH_DATE":"2020-02-17","CLASSIFICATION_TYPE":"U","MEAN_ELEMENT_THEORY":"SGP4","DECAY_DATE":null,"SEMIMAJOR_AXIS":"6925.375","RCS_SIZE":"LARGE","RA_OF_ASC_NODE":"196.3949","MEAN_MOTION_DDOT":"0.0000000000000","CENTER_NAME":"EARTH","REV_AT_EPOCH":"15781","INCLINATION":"53.0531","EPOCH":"2023-01-08T15:02:25.486368","MEAN_ANOMALY":"258.0254","EPHEMERIS_TYPE":"0","OBJECT_ID":"2020-012M","ELEMENT_SET_NO":"999","TLE_LINE1":"1 45189U 20012M   23008.62668387  .00002283  00000-0  17217-3 0  9997"},{"COUNTRY_CODE":"US","REF_FRAME":"TEME","PERIAPSIS":"546.362","TIME_SYSTEM":"UTC","SITE":"AFETR","APOAPSIS":"548.071","NORAD_CAT_ID":"45190","OBJECT_TYPE":"PAYLOAD","MEAN_MOTION_DOT":"0.00002657","ARG_OF_PERICENTER":"76.0134","MEAN_MOTION":"15.06399100","INCLINATION":"53.0544","REV_AT_EPOCH":"16108","EPOCH":"2023-01-08T20:15:33.344352","EPHEMERIS_TYPE":"0","MEAN_ANOMALY":"284.0992","TLE_LINE1":"1 45190U 20012N   23008.84413593  .00002657  00000-0  19719-3 0  9994","ELEMENT_SET_NO":"999","OBJECT_ID":"2020-012N","BSTAR":"0.00019719000000","FILE":"3736460","GP_ID":"222495799","OBJECT_NAME":"STARLINK-1234","TLE_LINE2":"2 45190  53.0544 155.4143 0001234  76.0134 284.0992 15.06399100161080","LAUNCH_DATE":"2020-02-17","PERIOD":"95.592","ECCENTRICITY":"0.00012340","SEMIMAJOR_AXIS":"6925.351","DECAY_DATE":null,"CLASSIFICATION_TYPE":"U","MEAN_ELEMENT_THEORY":"SGP4","MEAN_MOTION_DDOT":"0.0000000000000","CENTER_NAME":"EARTH","RCS_SIZE":"LARGE","RA_OF_ASC_NODE":"155.4143"},{"APOAPSIS":"548.397","NORAD_CAT_ID":"45191","MEAN_MOTION_DOT":"0.00000765","OBJECT_TYPE":"PAYLOAD","ARG_OF_PERICENTER":"61.6036","SITE":"AFETR","MEAN_MOTION":"15.06392905","COUNTRY_CODE":"US","PERIAPSIS":"546.074","TIME_SYSTEM":"UTC","REF_FRAME":"TEME","LAUNCH_DATE":"2020-02-17","TLE_LINE2":"2 45191  53.0539 195.1706 0001677  61.6036 298.5121 15.06392905157842","PERIOD":"95.593","ECCENTRICITY":"0.00016770","BSTAR":"0.00007024700000","OBJECT_NAME":"STARLINK-1236","GP_ID":"222496050","FILE":"3736460","MEAN_MOTION_DDOT":"0.0000000000000","CENTER_NAME":"EARTH","RA_OF_ASC_NODE":"195.1706","RCS_SIZE":"LARGE","DECAY_DATE":null,"SEMIMAJOR_AXIS":"6925.370","CLASSIFICATION_TYPE":"U","MEAN_ELEMENT_THEORY":"SGP4","EPOCH":"2023-01-08T21:35:11.814720","INCLINATION":"53.0539","REV_AT_EPOCH":"15784","TLE_LINE1":"1 45191U 20012P   23008.89944230  .00000765  00000-0  70247-4 0  9999","ELEMENT_SET_NO":"999","OBJECT_ID":"2020-012P","EPHEMERIS_TYPE":"0","MEAN_ANOMALY":"298.5121"},{"INCLINATION":"53.0538","REV_AT_EPOCH":"16063","EPOCH":"2023-01-08T20:58:02.003520","EPHEMERIS_TYPE":"0","MEAN_ANOMALY":"280.2546","TLE_LINE1":"1 45192U 20012Q   23008.87363430  .00001897  00000-0  14624-3 0  9998","OBJECT_ID":"2020-012Q","ELEMENT_SET_NO":"999","BSTAR":"0.00014624000000","GP_ID":"222494800","OBJECT_NAME":"STARLINK-1237","FILE":"3736460","LAUNCH_DATE":"2020-02-17","TLE_LINE2":"2 45192  53.0538 195.2878 0001329  79.8593 280.2546 15.06397484160633","ECCENTRICITY":"0.00013290","PERIOD":"95.592","SEMIMAJOR_AXIS":"6925.356","DECAY_DATE":null,"CLASSIFICATION_TYPE":"U","MEAN_ELEMENT_THEORY":"SGP4","MEAN_MOTION_DDOT":"0.0000000000000","CENTER_NAME":"EARTH","RCS_SIZE":"LARGE","RA_OF_ASC_NODE":"195.2878","COUNTRY_CODE":"US","REF_FRAME":"TEME","PERIAPSIS":"546.301","TIME_SYSTEM":"UTC","SITE":"AFETR","APOAPSIS":"548.142","NORAD_CAT_ID":"45192","OBJECT_TYPE":"PAYLOAD","MEAN_MOTION_DOT":"0.00001897","ARG_OF_PERICENTER":"79.8593","MEAN_MOTION":"15.06397484"},{"ARG_OF_PERICENTER":"74.0054","MEAN_MOTION_DOT":"0.00000092","OBJECT_TYPE":"PAYLOAD","NORAD_CAT_ID":"45193","APOAPSIS":"548.161","SITE":"AFETR","MEAN_MOTION":"15.06395046","COUNTRY_CODE":"US","TIME_SYSTEM":"UTC","PERIAPSIS":"546.297","REF_FRAME":"TEME","PERIOD":"95.592","ECCENTRICITY":"0.00013460","TLE_LINE2":"2 45193  53.0532 195.0383 0001346  74.0054 286.1083 15.06395046160582","LAUNCH_DATE":"2020-02-17","OBJECT_NAME":"STARLINK-1239","GP_ID":"222495049","FILE":"3736460","BSTAR":"0.00002506000000","RA_OF_ASC_NODE":"195.0383","RCS_SIZE":"LARGE","CENTER_NAME":"EARTH","MEAN_MOTION_DDOT":"0.0000000000000","CLASSIFICATION_TYPE":"U","MEAN_ELEMENT_THEORY":"SGP4","SEMIMAJOR_AXIS":"6925.364","DECAY_DATE":null,"EPOCH":"2023-01-08T22:17:39.270336","REV_AT_EPOCH":"16058","INCLINATION":"53.0532","ELEMENT_SET_NO":"999","OBJECT_ID":"2020-012R","TLE_LINE1":"1 45193U 20012R   23008.92892674  .00000092  00000-0  25060-4 0  9995","MEAN_ANOMALY":"286.1083","EPHEMERIS_TYPE":"0"}];
